ONEWEB-0055             
1 45443U 20020V   22124.45379403  .00000553  00000+0  15237-2 0  9992
2 45443  87.8839 320.2228 0001667  78.0741 282.0574 13.11416736105390
ONEWEB-0093             
1 45444U 20020W   22124.50540061 -.00000245  00000+0 -72843-3 0  9996
2 45444  87.8830 320.2398 0001703  77.2450 282.8868 13.11419688105460
ONEWEB-0029             
1 45445U 20020X   22124.45154246  .00000577  00000+0  15924-2 0  9999
2 45445  87.8832 320.2352 0002077  80.6394 279.4969 13.11418403105438
ONEWEB-0068             
1 45446U 20020Y   22124.49754363 -.00000470  00000+0 -13616-2 0  9990
2 45446  87.8828 320.2387 0001745  72.9300 287.2019 13.11417694105382
ONEWEB-0046             
1 45447U 20020Z   22124.49416788 -.00000484  00000+0 -14023-2 0  9995
2 45447  87.8830 320.2480 0001862  89.5555 270.5786 13.11416503105391
ONEWEB-0063             
1 45448U 20020AA  22124.44705678  .00000465  00000+0  12756-2 0  9998
2 45448  87.8825 320.2462 0001895  94.5813 265.5532 13.11417738105478
ONEWEB-0019             
1 45449U 20020AB  22124.26977916 -.00000113  00000+0 -35417-3 0  9997
2 45449  87.8832 320.2751 0001684  90.4632 269.6689 13.11409352105299
ONEWEB-0094             
1 45450U 20020AC  22124.49113274  .00000525  00000+0  13194-2 0  9995
2 45450  87.9014 304.9230 0001630  89.2738 270.8580 13.17648938108152
ONEWEB-0087             
1 45451U 20020AD  22124.45603884  .00000575  00000+0  15853-2 0  9992
2 45451  87.8836 320.2740 0002078  79.2034 280.9327 13.11416686105364
ONEWEB-0082             
1 45452U 20020AE  22124.45828317  .00000555  00000+0  15314-2 0  9993
2 45452  87.8828 320.2110 0001904  69.3568 290.7764 13.11414703105458
ONEWEB-0050             
1 45453U 20020AF  22124.63073255  .00002954  00000+0  26479-3 0  9997
2 45453  87.5404 254.6568 0026434  16.6666 343.5427 14.95171828115727
ONEWEB-0034             
1 45454U 20020AG  22124.55252236 -.00000079  00000+0 -25793-3 0  9993
2 45454  87.8825 320.2139 0001904  82.5420 277.5924 13.11415583105382
ONEWEB-0060             
1 45455U 20020AH  22124.48519469 -.00000416  00000+0 -12094-2 0  9994
2 45455  87.8830 320.2349 0001822  88.0392 272.0944 13.11415060105337
ONEWEB-0086             
1 45456U 20020AJ  22124.50314643 -.00000332  00000+0 -97311-3 0  9998
2 45456  87.8831 320.2246 0001818  78.4578 281.6754 13.11418537105392
ONEWEB-0088             
1 45457U 20020AK  22124.47848568 -.00000179  00000+0 -54134-3 0  9998
2 45457  87.8822 320.2444 0001958  86.2469 273.8883 13.11414099105322
ONEWEB-0102             
1 47258U 20100A   22124.44125141  .00000431  00000+0  11628-2 0  9999
2 47258  87.8804 289.6941 0001510  83.4230 276.7070 13.12444517 67351
ONEWEB-0109             
1 47259U 20100B   22124.45281868  .00000419  00000+0  11287-2 0  9997
2 47259  87.8843 289.7209 0001507  91.4066 268.7235 13.12443644 67180
ONEWEB-0110             
1 47260U 20100C   22124.47591687 -.00000305  00000+0 -88219-3 0  9990
2 47260  87.8853 289.6814 0001412  84.3824 275.7466 13.12442705 67352
ONEWEB-0111             
1 47261U 20100D   22124.50592535  .00000014  00000+0  23477-5 0  9990
2 47261  87.8826 289.6866 0001559  87.2056 272.9251 13.12445711 67194
ONEWEB-0114             
1 47262U 20100E   22124.46204355  .00000121  00000+0  29982-3 0  9990
2 47262  87.8890 289.6486 0001304 103.9758 256.1515 13.12440261 67144
ONEWEB-0117             
1 47263U 20100F   22124.45511585  .00000299  00000+0  79434-3 0  9999
2 47263  87.8845 289.7218 0001553  89.0779 271.0527 13.12442891 67153
ONEWEB-0118             
1 47264U 20100G   22124.48514359 -.00000360  00000+0 -10348-2 0  9994
2 47264  87.8846 289.6664 0001889 118.2920 241.8399 13.12443797 67354
ONEWEB-0119             
1 47265U 20100H   22124.43665274  .00000307  00000+0  81848-3 0  9996
2 47265  87.8801 289.6989 0001618  90.9472 269.1842 13.12444083 67326
ONEWEB-0120             
1 47266U 20100J   22124.46667578  .00000063  00000+0  13928-3 0  9992
2 47266  87.8873 289.7479 0001408  97.2576 262.8713 13.12440864 67356
ONEWEB-0121             
1 47267U 20100K   22124.45051728  .00000523  00000+0  14187-2 0  9994
2 47267  87.8845 289.7941 0001721  85.7293 274.4032 13.12442391 67266
ONEWEB-0122             
1 47268U 20100L   22124.44358350  .00000464  00000+0  12534-2 0  9993
2 47268  87.8884 289.6960 0001562  90.6551 269.4756 13.12443192 67172
ONEWEB-0123             
1 47269U 20100M   22124.43895332  .00000336  00000+0  89871-3 0  9996
2 47269  87.8817 289.6958 0001619  95.5865 264.5448 13.12441021 67310
ONEWEB-0124             
1 47270U 20100N   22124.50133322 -.00000053  00000+0 -18383-3 0  9998
2 47270  87.8921 289.6123 0001897  79.9815 280.1528 13.12443268 67207
ONEWEB-0125             
1 47271U 20100P   22124.48051608 -.00000330  00000+0 -95155-3 0  9992
2 47271  87.8817 289.7471 0001434 101.6437 258.4853 13.12444162 67268
ONEWEB-0126             
1 47272U 20100Q   22124.50478431  .00000119  00000+0  29612-3 0  9991
2 47272  87.8822 289.7327 0001370  91.5374 268.5911 13.12443262 67336
ONEWEB-0127             
1 47273U 20100R   22124.46898402 -.00000115  00000+0 -35576-3 0  9995
2 47273  87.8846 289.6299 0001655  95.5248 264.6070 13.12443075 67357
ONEWEB-0128             
1 47274U 20100S   22124.48976965 -.00000387  00000+0 -11125-2 0  9993
2 47274  87.8851 289.6634 0001563  77.4997 282.6307 13.12443884 67378
ONEWEB-0129             
1 47275U 20100T   22124.47127270 -.00000213  00000+0 -62811-3 0  9997
2 47275  87.8910 289.7090 0001200 164.1576 195.9590 13.12440753 67302
ONEWEB-0130             
1 47276U 20100U   22124.49670417 -.00000178  00000+0 -52910-3 0  9995
2 47276  87.8850 289.7136 0001618  87.5917 272.5396 13.12442580 67279
ONEWEB-0131             
1 47277U 20100V   22124.49437561 -.00000561  00000+0 -15962-2 0  9998
2 47277  87.8849 289.6607 0001761  87.8209 272.3121 13.12443281 67314
ONEWEB-0132             
1 47278U 20100W   22124.44819909  .00000498  00000+0  13487-2 0  9991
2 47278  87.8810 289.7142 0001387  98.1861 261.9425 13.12443647 67206
ONEWEB-0133             
1 47279U 20100X   22124.46435179  .00000131  00000+0  32803-3 0  9995
2 47279  87.8842 289.6520 0001595  93.9519 266.1792 13.12443228 67361
ONEWEB-0134             
1 47280U 20100Y   22124.43201851  .00000217  00000+0  56816-3 0  9997
2 47280  87.8856 289.6647 0001537  80.8323 279.2979 13.12442261 67337
ONEWEB-0135             
1 47281U 20100Z   22124.47820426 -.00000332  00000+0 -95936-3 0  9993
2 47281  87.8841 289.6382 0001445  89.6715 270.4579 13.12441169 67366
ONEWEB-0136             
1 47282U 20100AA  22124.49902580 -.00000189  00000+0 -55957-3 0  9997
2 47282  87.8899 289.7013 0000957  62.7615 297.3611 13.12441721 67291
ONEWEB-0137             
1 47283U 20100AB  22124.45973344  .00000177  00000+0  45668-3 0  9993
2 47283  87.8844 289.6971 0001457 100.1696 259.9597 13.12440011 67193
ONEWEB-0138             
1 47284U 20100AC  22124.43432990  .00000258  00000+0  68079-3 0  9990
2 47284  87.8869 289.7111 0001336  89.3973 270.7309 13.12444755 67270
ONEWEB-0139             
1 47285U 20100AD  22124.48283978 -.00000365  00000+0 -10503-2 0  9995
2 47285  87.8829 289.7630 0001423  84.7462 275.3828 13.12441854 67355
ONEWEB-0140             
1 47286U 20100AE  22124.50363762 -.00000047  00000+0 -16519-3 0  9990
2 47286  87.8824 289.6942 0001470  87.1885 272.9411 13.12445193 67322
ONEWEB-0141             
1 47287U 20100AF  22124.45164146 -.00000802  00000+0 -22653-2 0  9994
2 47287  87.8847 289.6729 0001841 110.1013 250.0314 13.12446957 67309
ONEWEB-0142             
1 47288U 20100AG  22124.44242854  .00000381  00000+0  10226-2 0  9990
2 47288  87.8813 289.7689 0001582 105.5978 254.5326 13.12447333 67298
ONEWEB-0143             
1 47289U 20100AH  22124.47359264 -.00000401  00000+0 -11494-2 0  9991
2 47289  87.8845 289.6895 0001647  90.8942 269.2375 13.12442532 67272
ONEWEB-0144             
1 47290U 20100AJ  22124.44587284  .00000546  00000+0  14822-2 0  9991
2 47290  87.8890 289.6813 0001552  84.5358 275.5947 13.12444499 67190
ONEWEB-0145             
1 47291U 20100AK  22124.49208530 -.00000279  00000+0 -81142-3 0  9996
2 47291  87.8823 289.6713 0001557  95.1637 264.9670 13.12443594 67391
ONEWEB-0146             
1 47292U 20100AL  22124.48745341 -.00000424  00000+0 -12154-2 0  9990
2 47292  87.8846 289.7086 0002586  83.4768 276.6655 13.12444632 67307
ONEWEB-0147             
1 47293U 20100AM  22124.45742603  .00000314  00000+0  83686-3 0  9991
2 47293  87.8826 289.7060 0000981  82.9443 277.1797 13.12439504 67191
ONEWEB-0115             
1 48042U 21025A   22124.43991517  .00000287  00000+0  74996-3 0  9992
2 48042  87.8914 259.0405 0001790  86.5245 273.6088 13.13471483 56065
ONEWEB-0152             
1 48043U 21025B   22124.60345196  .00000281  00000+0  73561-3 0  9999
2 48043  87.8967 259.0670 0001574  90.5783 269.5526 13.13467707 56043
ONEWEB-0153             
1 48044U 21025C   22124.42871966  .00000271  00000+0  70595-3 0  9992
2 48044  87.8896 259.1956 0001684 100.2574 259.8745 13.13471877 56028
ONEWEB-0154             
1 48045U 21025D   22124.42646872  .00000166  00000+0  41967-3 0  9993
2 48045  87.8992 259.1603 0001583  93.8591 266.2719 13.13475290 55978
ONEWEB-0116             
1 48046U 21025E   22124.62139902 -.00000174  00000+0 -51268-3 0  9993
2 48046  87.8992 259.1091 0002091  93.7785 266.3583 13.13470244 56143
ONEWEB-0150             
1 48047U 21025F   22124.44216272  .00000524  00000+0  14012-2 0  9992
2 48047  87.8872 258.9864 0001579 110.5042 249.6256 13.13470221 56012
ONEWEB-0107             
1 48048U 21025G   22124.59675408  .00000380  00000+0  10045-2 0  9991
2 48048  87.8899 258.9820 0001438 117.1135 243.0141 13.13469113 56013
ONEWEB-0101             
1 48049U 21025H   22124.40853223 -.00000382  00000+0 -10805-2 0  9993
2 48049  87.8889 259.0688 0001508  98.8829 261.2471 13.13471347 55963
